[{"OBJECT_NAME":"STARLINK-36704","OBJECT_ID":"2026-025E","EPOCH":"2026-03-19T06:02:33.375552","MEAN_MOTION":15.75273105,"ECCENTRICITY":0.00011729,"INCLINATION":97.2861,"RA_OF_ASC_NODE":190.277,"ARG_OF_PERICENTER":119.7654,"MEAN_ANOMALY":240.3728,"EPHEMERIS_TYPE":0,"CLASSIFICATION_TYPE":"U","NORAD_CAT_ID":67697,"ELEMENT_SET_NO":999,"REV_AT_EPOCH":744,"BSTAR":0.0019889628,"MEAN_MOTION_DOT":0.00308623,"MEAN_MOTION_DDOT":0},{"OBJECT_NAME":"STARLINK-36697","OBJECT_ID":"2026-025F","EPOCH":"2026-03-19T06:25:26.060736","MEAN_MOTION":15.75175239,"ECCENTRICITY":0.00011963,"INCLINATION":97.2844,"RA_OF_ASC_NODE":190.4107,"ARG_OF_PERICENTER":82.7599,"MEAN_ANOMALY":277.3802,"EPHEMERIS_TYPE":0,"CLASSIFICATION_TYPE":"U","NORAD_CAT_ID":67698,"ELEMENT_SET_NO":999,"REV_AT_EPOCH":745,"BSTAR":0.0022383616,"MEAN_MOTION_DOT":0.00347473,"MEAN_MOTION_DDOT":0},{"OBJECT_NAME":"STARLINK-36716","OBJECT_ID":"2026-025G","EPOCH":"2026-03-19T06:51:20.462400","MEAN_MOTION":15.75253967,"ECCENTRICITY":0.00011527,"INCLINATION":97.2848,"RA_OF_ASC_NODE":190.3848,"ARG_OF_PERICENTER":48.9835,"MEAN_ANOMALY":311.1529,"EPHEMERIS_TYPE":0,"CLASSIFICATION_TYPE":"U","NORAD_CAT_ID":67699,"ELEMENT_SET_NO":999,"REV_AT_EPOCH":746,"BSTAR":0.0009292854,"MEAN_MOTION_DOT":0.00141183,"MEAN_MOTION_DDOT":0},{"OBJECT_NAME":"STARLINK-36712","OBJECT_ID":"2026-025H","EPOCH":"2026-03-19T07:19:48.440064","MEAN_MOTION":15.75240145,"ECCENTRICITY":0.00014325,"INCLINATION":97.285,"RA_OF_ASC_NODE":190.358,"ARG_OF_PERICENTER":66.1084,"MEAN_ANOMALY":294.0331,"EPHEMERIS_TYPE":0,"CLASSIFICATION_TYPE":"U","NORAD_CAT_ID":67700,"ELEMENT_SET_NO":999,"REV_AT_EPOCH":745,"BSTAR":0.0010401617,"MEAN_MOTION_DOT":0.00158268,"MEAN_MOTION_DDOT":0},{"OBJECT_NAME":"STARLINK-36713","OBJECT_ID":"2026-025J","EPOCH":"2026-03-19T07:22:20.789184","MEAN_MOTION":15.75234058,"ECCENTRICITY":0.00015524,"INCLINATION":97.2846,"RA_OF_ASC_NODE":190.3554,"ARG_OF_PERICENTER":60.6047,"MEAN_ANOMALY":299.5373,"EPHEMERIS_TYPE":0,"CLASSIFICATION_TYPE":"U","NORAD_CAT_ID":67701,"ELEMENT_SET_NO":999,"REV_AT_EPOCH":746,"BSTAR":0.00100324,"MEAN_MOTION_DOT":0.00152503,"MEAN_MOTION_DDOT":0},{"OBJECT_NAME":"STARLINK-36695","OBJECT_ID":"2026-025K","EPOCH":"2026-03-19T07:25:23.672064","MEAN_MOTION":15.75210692,"ECCENTRICITY":0.00016138,"INCLINATION":97.2849,"RA_OF_ASC_NODE":190.3518,"ARG_OF_PERICENTER":26.7396,"MEAN_ANOMALY":333.3952,"EPHEMERIS_TYPE":0,"CLASSIFICATION_TYPE":"U","NORAD_CAT_ID":67702,"ELEMENT_SET_NO":999,"REV_AT_EPOCH":745,"BSTAR":0.0010620805,"MEAN_MOTION_DOT":0.00161462,"MEAN_MOTION_DDOT":0},{"OBJECT_NAME":"STARLINK-36630","OBJECT_ID":"2026-025L","EPOCH":"2026-03-19T06:00:02.000160","MEAN_MOTION":15.62228842,"ECCENTRICITY":0.000199,"INCLINATION":97.2856,"RA_OF_ASC_NODE":190.3601,"ARG_OF_PERICENTER":67.354,"MEAN_ANOMALY":109.6232,"EPHEMERIS_TYPE":0,"CLASSIFICATION_TYPE":"U","NORAD_CAT_ID":67703,"ELEMENT_SET_NO":999,"REV_AT_EPOCH":612,"BSTAR":-0.023568023,"MEAN_MOTION_DOT":-0.01841055,"MEAN_MOTION_DDOT":0},{"OBJECT_NAME":"STARLINK-36338","OBJECT_ID":"2026-025M","EPOCH":"2026-03-19T06:54:23.816160","MEAN_MOTION":15.7522474,"ECCENTRICITY":0.00013181,"INCLINATION":97.2849,"RA_OF_ASC_NODE":190.381,"ARG_OF_PERICENTER":70.6843,"MEAN_ANOMALY":289.4565,"EPHEMERIS_TYPE":0,"CLASSIFICATION_TYPE":"U","NORAD_CAT_ID":67704,"ELEMENT_SET_NO":999,"REV_AT_EPOCH":745,"BSTAR":0.00079449347,"MEAN_MOTION_DOT":0.00120236,"MEAN_MOTION_DDOT":0},{"OBJECT_NAME":"STARLINK-36316","OBJECT_ID":"2026-025N","EPOCH":"2026-03-19T07:20:05.543808","MEAN_MOTION":15.65363792,"ECCENTRICITY":0.0001519,"INCLINATION":97.2857,"RA_OF_ASC_NODE":190.3576,"ARG_OF_PERICENTER":40.4603,"MEAN_ANOMALY":319.677,"EPHEMERIS_TYPE":0,"CLASSIFICATION_TYPE":"U","NORAD_CAT_ID":67705,"ELEMENT_SET_NO":999,"REV_AT_EPOCH":745,"BSTAR":-0.0087275444,"MEAN_MOTION_DOT":-0.00788386,"MEAN_MOTION_DDOT":0},{"OBJECT_NAME":"STARLINK-36707","OBJECT_ID":"2026-025P","EPOCH":"2026-03-19T06:40:10.165152","MEAN_MOTION":15.75166985,"ECCENTRICITY":0.00035238,"INCLINATION":97.2843,"RA_OF_ASC_NODE":190.3939,"ARG_OF_PERICENTER":125.0093,"MEAN_ANOMALY":235.1503,"EPHEMERIS_TYPE":0,"CLASSIFICATION_TYPE":"U","NORAD_CAT_ID":67706,"ELEMENT_SET_NO":999,"REV_AT_EPOCH":745,"BSTAR":0.0012775829,"MEAN_MOTION_DOT":0.0019468,"MEAN_MOTION_DDOT":0},{"OBJECT_NAME":"STARLINK-36645","OBJECT_ID":"2026-025Q","EPOCH":"2026-03-19T07:14:12.990336","MEAN_MOTION":15.75233389,"ECCENTRICITY":0.00012933,"INCLINATION":97.2851,"RA_OF_ASC_NODE":190.3623,"ARG_OF_PERICENTER":73.7792,"MEAN_ANOMALY":286.3616,"EPHEMERIS_TYPE":0,"CLASSIFICATION_TYPE":"U","NORAD_CAT_ID":67707,"ELEMENT_SET_NO":999,"REV_AT_EPOCH":745,"BSTAR":0.0010651494,"MEAN_MOTION_DOT":0.00162099,"MEAN_MOTION_DDOT":0},{"OBJECT_NAME":"STARLINK-36287","OBJECT_ID":"2026-025R","EPOCH":"2026-03-19T06:22:23.138112","MEAN_MOTION":15.75189326,"ECCENTRICITY":0.00026695,"INCLINATION":97.2848,"RA_OF_ASC_NODE":190.4113,"ARG_OF_PERICENTER":348.0426,"MEAN_ANOMALY":12.0775,"EPHEMERIS_TYPE":0,"CLASSIFICATION_TYPE":"U","NORAD_CAT_ID":67708,"ELEMENT_SET_NO":999,"REV_AT_EPOCH":746,"BSTAR":0.0014731518,"MEAN_MOTION_DOT":0.00225509,"MEAN_MOTION_DDOT":0},{"OBJECT_NAME":"STARLINK-36698","OBJECT_ID":"2026-025S","EPOCH":"2026-03-19T06:11:12.219648","MEAN_MOTION":15.75328196,"ECCENTRICITY":0.00019021,"INCLINATION":97.2843,"RA_OF_ASC_NODE":190.4226,"ARG_OF_PERICENTER":125.2459,"MEAN_ANOMALY":234.8985,"EPHEMERIS_TYPE":0,"CLASSIFICATION_TYPE":"U","NORAD_CAT_ID":67709,"ELEMENT_SET_NO":999,"REV_AT_EPOCH":745,"BSTAR":0.0020883426,"MEAN_MOTION_DOT":0.00325468,"MEAN_MOTION_DDOT":0},{"OBJECT_NAME":"STARLINK-36344","OBJECT_ID":"2026-025T","EPOCH":"2026-03-19T06:34:04.190304","MEAN_MOTION":15.75168974,"ECCENTRICITY":6.383e-5,"INCLINATION":97.2856,"RA_OF_ASC_NODE":190.4005,"ARG_OF_PERICENTER":32.8824,"MEAN_ANOMALY":327.2481,"EPHEMERIS_TYPE":0,"CLASSIFICATION_TYPE":"U","NORAD_CAT_ID":67710,"ELEMENT_SET_NO":999,"REV_AT_EPOCH":746,"BSTAR":0.0017633601,"MEAN_MOTION_DOT":0.00271174,"MEAN_MOTION_DDOT":0},{"OBJECT_NAME":"STARLINK-36687","OBJECT_ID":"2026-025U","EPOCH":"2026-03-19T07:11:41.166528","MEAN_MOTION":15.75220522,"ECCENTRICITY":0.0001467,"INCLINATION":97.2849,"RA_OF_ASC_NODE":190.5183,"ARG_OF_PERICENTER":47.5654,"MEAN_ANOMALY":312.5735,"EPHEMERIS_TYPE":0,"CLASSIFICATION_TYPE":"U","NORAD_CAT_ID":67711,"ELEMENT_SET_NO":999,"REV_AT_EPOCH":747,"BSTAR":0.00078368782,"MEAN_MOTION_DOT":0.00118555,"MEAN_MOTION_DDOT":0},{"OBJECT_NAME":"STARLINK-36705","OBJECT_ID":"2026-025V","EPOCH":"2026-03-19T06:45:45.566496","MEAN_MOTION":15.75231336,"ECCENTRICITY":7.431e-5,"INCLINATION":97.2852,"RA_OF_ASC_NODE":190.3865,"ARG_OF_PERICENTER":61.0179,"MEAN_ANOMALY":299.116,"EPHEMERIS_TYPE":0,"CLASSIFICATION_TYPE":"U","NORAD_CAT_ID":67712,"ELEMENT_SET_NO":999,"REV_AT_EPOCH":745,"BSTAR":0.0015929269,"MEAN_MOTION_DOT":0.00244845,"MEAN_MOTION_DDOT":0}]
