STARLINK-36704          
1 67697U 26025E   26078.25177518  .00308623  00000+0  19890-2 0  9999
2 67697  97.2861 190.2770 0001172 119.7654 240.3728 15.75273105  7447
STARLINK-36697          
1 67698U 26025F   26078.26766274  .00347473  00000+0  22384-2 0  9992
2 67698  97.2844 190.4107 0001196  82.7599 277.3802 15.75175239  7451
STARLINK-36716          
1 67699U 26025G   26078.28565350  .00141183  00000+0  92929-3 0  9990
2 67699  97.2848 190.3848 0001152  48.9835 311.1529 15.75253967  7465
STARLINK-36712          
1 67700U 26025H   26078.30542176  .00158268  00000+0  10402-2 0  9994
2 67700  97.2850 190.3580 0001432  66.1084 294.0331 15.75240145  7456
STARLINK-36713          
1 67701U 26025J   26078.30718506  .00152503  00000+0  10032-2 0  9992
2 67701  97.2846 190.3554 0001552  60.6047 299.5373 15.75234058  7467
STARLINK-36695          
1 67702U 26025K   26078.30930176  .00161462  00000+0  10621-2 0  9990
2 67702  97.2849 190.3518 0001613  26.7396 333.3952 15.75210692  7456
STARLINK-36630          
1 67703U 26025L   26078.25002315 -.01841055  00000+0 -23568-1 0  9999
2 67703  97.2856 190.3601 0001990  67.3540 109.6232 15.62228842  6128
STARLINK-36338          
1 67704U 26025M   26078.28777565  .00120236  00000+0  79449-3 0  9998
2 67704  97.2849 190.3810 0001318  70.6843 289.4565 15.75224740  7450
STARLINK-36316          
1 67705U 26025N   26078.30561972 -.00788386  00000+0 -87275-2 0  9998
2 67705  97.2857 190.3576 0001519  40.4603 319.6770 15.65363792  7455
STARLINK-36707          
1 67706U 26025P   26078.27789543  .00194680  00000+0  12776-2 0  9991
2 67706  97.2843 190.3939 0003523 125.0093 235.1503 15.75166985  7456
STARLINK-36645          
1 67707U 26025Q   26078.30153924  .00162099  00000+0  10651-2 0  9993
2 67707  97.2851 190.3623 0001293  73.7792 286.3616 15.75233389  7459
STARLINK-36287          
1 67708U 26025R   26078.26554558  .00225509  00000+0  14732-2 0  9997
2 67708  97.2848 190.4113 0002669 348.0426  12.0775 15.75189326  7463
STARLINK-36698          
1 67709U 26025S   26078.25778032  .00325468  00000+0  20883-2 0  9991
2 67709  97.2843 190.4226 0001902 125.2459 234.8985 15.75328196  7450
STARLINK-36344          
1 67710U 26025T   26078.27365961  .00271174  00000+0  17634-2 0  9992
2 67710  97.2856 190.4005 0000638  32.8824 327.2481 15.75168974  7460
STARLINK-36687          
1 67711U 26025U   26078.29978202  .00118555  00000+0  78369-3 0  9999
2 67711  97.2849 190.5183 0001467  47.5654 312.5735 15.75220522  7474
STARLINK-36705          
1 67712U 26025V   26078.28177739  .00244845  00000+0  15929-2 0  9999
2 67712  97.2852 190.3865 0000743  61.0179 299.1160 15.75231336  7458
